{
  "type": "FeatureCollection",
  "features": [
    {
      "type": "Feature",
      "properties": {
        "norad_id": 66990,
        "name": "TJS-22",
        "group": "last-30-days",
        "lat": -0.0065623450712736595,
        "lon": 105.88334224140817,
        "alt_km": 35800.188321864705,
        "timestamp": "2025-12-19T20:42:58.815528+00:00",
        "meta_object_name": "TJS-22",
        "meta_object_id": "2025-290A",
        "meta_epoch": "2025-12-18T08:47:47.925024",
        "meta_mean_motion": 1.00270336,
        "meta_eccentricity": 0.00034462,
        "meta_inclination": 1.9746,
        "meta_ra_of_asc_node": 285.0171,
        "meta_arg_of_pericenter": 341.282,
        "meta_mean_anomaly": 19.3488,
        "meta_ephemeris_type": 0,
        "meta_classification_type": "U",
        "meta_norad_cat_id": 66990,
        "meta_element_set_no": 999,
        "meta_rev_at_epoch": 21,
        "meta_bstar": 0,
        "meta_mean_motion_dot": 2.1e-07,
        "meta_mean_motion_ddot": 0,
        "tle_line1": "1 66990U 25290A   25352.36652691  .00000021  00000+0  00000+0 0  9994",
        "tle_line2": "2 66990   1.9746 285.0171 0003446 341.2820  19.3488  1.00270336   218"
      },
      "geometry": {
        "type": "Point",
        "coordinates": [
          105.88334224140817,
          -0.0065623450712736595
        ]
      }
    },
    {
      "type": "Feature",
      "properties": {
        "norad_id": 66991,
        "name": "CZ-3B R/B",
        "group": "last-30-days",
        "lat": -3.9854562592409435,
        "lon": -68.54898168691432,
        "alt_km": 31565.56790363455,
        "timestamp": "2025-12-19T20:42:58.815540+00:00",
        "meta_object_name": "CZ-3B R/B",
        "meta_object_id": "2025-290B",
        "meta_epoch": "2025-12-15T17:23:33.043200",
        "meta_mean_motion": 2.38388611,
        "meta_eccentricity": 0.7240884,
        "meta_inclination": 28.4636,
        "meta_ra_of_asc_node": 300.4666,
        "meta_arg_of_pericenter": 182.7002,
        "meta_mean_anomaly": 168.625,
        "meta_ephemeris_type": 0,
        "meta_classification_type": "U",
        "meta_norad_cat_id": 66991,
        "meta_element_set_no": 999,
        "meta_rev_at_epoch": 16,
        "meta_bstar": 0.00075879,
        "meta_mean_motion_dot": 0.00057911,
        "meta_mean_motion_ddot": -2.0514e-07,
        "tle_line1": "1 66991U 25290B   25349.72468800  .00057911 -20514-6  75879-3 0  9998",
        "tle_line2": "2 66991  28.4636 300.4666 7240884 182.7002 168.6250  2.38388611   165"
      },
      "geometry": {
        "type": "Point",
        "coordinates": [
          -68.54898168691432,
          -3.9854562592409435
        ]
      }
    },
    {
      "type": "Feature",
      "properties": {
        "norad_id": 66993,
        "name": "2025-292A",
        "group": "last-30-days",
        "lat": 34.309779987343056,
        "lon": 61.08108372149416,
        "alt_km": 558.9618284969056,
        "timestamp": "2025-12-19T20:42:58.815552+00:00",
        "meta_object_name": "2025-292A",
        "meta_object_id": "2025-292A",
        "meta_epoch": "2025-12-19T06:11:49.058016",
        "meta_mean_motion": 15.04540227,
        "meta_eccentricity": 0.00138954,
        "meta_inclination": 97.6528,
        "meta_ra_of_asc_node": 65.7466,
        "meta_arg_of_pericenter": 248.2172,
        "meta_mean_anomaly": 111.7576,
        "meta_ephemeris_type": 0,
        "meta_classification_type": "U",
        "meta_norad_cat_id": 66993,
        "meta_element_set_no": 999,
        "meta_rev_at_epoch": 137,
        "meta_bstar": 0.00020705591,
        "meta_mean_motion_dot": 2.845e-05,
        "meta_mean_motion_ddot": 0,
        "tle_line1": "1 66993U 25292A   25353.25820669  .00002845  00000+0  20706-3 0  9995",
        "tle_line2": "2 66993  97.6528  65.7466 0013895 248.2172 111.7576 15.04540227  1377"
      },
      "geometry": {
        "type": "Point",
        "coordinates": [
          61.08108372149416,
          34.309779987343056
        ]
      }
    },
    {
      "type": "Feature",
      "properties": {
        "norad_id": 66994,
        "name": "2025-292B",
        "group": "last-30-days",
        "lat": 35.833835027296665,
        "lon": 60.77464258854407,
        "alt_km": 558.5549075287245,
        "timestamp": "2025-12-19T20:42:58.815562+00:00",
        "meta_object_name": "2025-292B",
        "meta_object_id": "2025-292B",
        "meta_epoch": "2025-12-19T06:11:25.834560",
        "meta_mean_motion": 15.04581174,
        "meta_eccentricity": 0.00136595,
        "meta_inclination": 97.6537,
        "meta_ra_of_asc_node": 65.7478,
        "meta_arg_of_pericenter": 248.5509,
        "meta_mean_anomaly": 111.4261,
        "meta_ephemeris_type": 0,
        "meta_classification_type": "U",
        "meta_norad_cat_id": 66994,
        "meta_element_set_no": 999,
        "meta_rev_at_epoch": 137,
        "meta_bstar": 0.00024454567,
        "meta_mean_motion_dot": 3.376e-05,
        "meta_mean_motion_ddot": 0,
        "tle_line1": "1 66994U 25292B   25353.25793790  .00003376  00000+0  24455-3 0  9995",
        "tle_line2": "2 66994  97.6537  65.7478 0013659 248.5509 111.4261 15.04581174  1370"
      },
      "geometry": {
        "type": "Point",
        "coordinates": [
          60.77464258854407,
          35.833835027296665
        ]
      }
    },
    {
      "type": "Feature",
      "properties": {
        "norad_id": 66995,
        "name": "2025-292C",
        "group": "last-30-days",
        "lat": 36.259056141341304,
        "lon": 60.68664965605302,
        "alt_km": 558.5909673505821,
        "timestamp": "2025-12-19T20:42:58.815572+00:00",
        "meta_object_name": "2025-292C",
        "meta_object_id": "2025-292C",
        "meta_epoch": "2025-12-19T06:11:19.847040",
        "meta_mean_motion": 15.04607318,
        "meta_eccentricity": 0.00139633,
        "meta_inclination": 97.6528,
        "meta_ra_of_asc_node": 65.747,
        "meta_arg_of_pericenter": 248.9447,
        "meta_mean_anomaly": 111.0286,
        "meta_ephemeris_type": 0,
        "meta_classification_type": "U",
        "meta_norad_cat_id": 66995,
        "meta_element_set_no": 999,
        "meta_rev_at_epoch": 137,
        "meta_bstar": 0.00027218059,
        "meta_mean_motion_dot": 3.767e-05,
        "meta_mean_motion_ddot": 0,
        "tle_line1": "1 66995U 25292C   25353.25786860  .00003767  00000+0  27218-3 0  9990",
        "tle_line2": "2 66995  97.6528  65.7470 0013963 248.9447 111.0286 15.04607318  1378"
      },
      "geometry": {
        "type": "Point",
        "coordinates": [
          60.68664965605302,
          36.259056141341304
        ]
      }
    },
    {
      "type": "Feature",
      "properties": {
        "norad_id": 66996,
        "name": "2025-292D",
        "group": "last-30-days",
        "lat": 37.80229586915505,
        "lon": 60.35981461977608,
        "alt_km": 557.6652771249028,
        "timestamp": "2025-12-19T20:42:58.815584+00:00",
        "meta_object_name": "2025-292D",
        "meta_object_id": "2025-292D",
        "meta_epoch": "2025-12-19T06:10:55.998912",
        "meta_mean_motion": 15.04637815,
        "meta_eccentricity": 0.0013126,
        "meta_inclination": 97.6521,
        "meta_ra_of_asc_node": 65.7467,
        "meta_arg_of_pericenter": 251.6473,
        "meta_mean_anomaly": 108.3325,
        "meta_ephemeris_type": 0,
        "meta_classification_type": "U",
        "meta_norad_cat_id": 66996,
        "meta_element_set_no": 999,
        "meta_rev_at_epoch": 137,
        "meta_bstar": 0.0001782249,
        "meta_mean_motion_dot": 2.446e-05,
        "meta_mean_motion_ddot": 0,
        "tle_line1": "1 66996U 25292D   25353.25759258  .00002446  00000+0  17822-3 0  9995",
        "tle_line2": "2 66996  97.6521  65.7467 0013126 251.6473 108.3325 15.04637815  1377"
      },
      "geometry": {
        "type": "Point",
        "coordinates": [
          60.35981461977608,
          37.80229586915505
        ]
      }
    },
    {
      "type": "Feature",
      "properties": {
        "norad_id": 66997,
        "name": "2025-292E",
        "group": "last-30-days",
        "lat": 40.58084216480749,
        "lon": 59.73546495758853,
        "alt_km": 557.344010935356,
        "timestamp": "2025-12-19T20:42:58.815597+00:00",
        "meta_object_name": "2025-292E",
        "meta_object_id": "2025-292E",
        "meta_epoch": "2025-12-19T06:10:13.915200",
        "meta_mean_motion": 15.04723396,
        "meta_eccentricity": 0.00134879,
        "meta_inclination": 97.6543,
        "meta_ra_of_asc_node": 65.7496,
        "meta_arg_of_pericenter": 252.5124,
        "meta_mean_anomaly": 107.4629,
        "meta_ephemeris_type": 0,
        "meta_classification_type": "U",
        "meta_norad_cat_id": 66997,
        "meta_element_set_no": 999,
        "meta_rev_at_epoch": 136,
        "meta_bstar": 0.00020328778,
        "meta_mean_motion_dot": 2.806e-05,
        "meta_mean_motion_ddot": 0,
        "tle_line1": "1 66997U 25292E   25353.25710550  .00002806  00000+0  20329-3 0  9994",
        "tle_line2": "2 66997  97.6543  65.7496 0013487 252.5124 107.4629 15.04723396  1363"
      },
      "geometry": {
        "type": "Point",
        "coordinates": [
          59.73546495758853,
          40.58084216480749
        ]
      }
    }
  ]
}